CCSDS_OMM_VERS = 2.0
CREATION_DATE  = 
ORIGINATOR     = 

OBJECT_NAME    = CZ-2D R/B
OBJECT_ID      = 2005-024B
CENTER_NAME    = EARTH
REF_FRAME      = TEME
TIME_SYSTEM    = UTC
MEAN_ELEMENT_THEORY = SGP/SGP4

EPOCH          = 2025-12-02T22:14:35.411136
MEAN_MOTION    = 15.52449645
ECCENTRICITY   = .00070049
INCLINATION    = 97.3631
RA_OF_ASC_NODE = 344.1229
ARG_OF_PERICENTER = 37.3162
MEAN_ANOMALY   = 322.8576

EPHEMERIS_TYPE = 0
CLASSIFICATION_TYPE = U
NORAD_CAT_ID   = 28738
ELEMENT_SET_NO = 999
REV_AT_EPOCH   = 12473
BSTAR          = .51226053E-3
MEAN_MOTION_DOT = .31325E-3
MEAN_MOTION_DDOT = 0

CCSDS_OMM_VERS = 2.0
CREATION_DATE  = 
ORIGINATOR     = 

OBJECT_NAME    = ALOS (DAICHI)
OBJECT_ID      = 2006-002A
CENTER_NAME    = EARTH
REF_FRAME      = TEME
TIME_SYSTEM    = UTC
MEAN_ELEMENT_THEORY = SGP/SGP4

EPOCH          = 2025-12-03T08:48:03.805344
MEAN_MOTION    = 14.69440041
ECCENTRICITY   = .0000739
INCLINATION    = 98.1077
RA_OF_ASC_NODE = 288.9211
ARG_OF_PERICENTER = 103.5870
MEAN_ANOMALY   = 256.5418

EPHEMERIS_TYPE = 0
CLASSIFICATION_TYPE = U
NORAD_CAT_ID   = 28931
ELEMENT_SET_NO = 999
REV_AT_EPOCH   = 5933
BSTAR          = .38600259E-3
MEAN_MOTION_DOT = .2236E-4
MEAN_MOTION_DDOT = 0

CCSDS_OMM_VERS = 2.0
CREATION_DATE  = 
ORIGINATOR     = 

OBJECT_NAME    = H-2A R/B
OBJECT_ID      = 2006-002B
CENTER_NAME    = EARTH
REF_FRAME      = TEME
TIME_SYSTEM    = UTC
MEAN_ELEMENT_THEORY = SGP/SGP4

EPOCH          = 2025-12-03T08:05:06.489888
MEAN_MOTION    = 15.14256927
ECCENTRICITY   = .00545603
INCLINATION    = 98.2309
RA_OF_ASC_NODE = 111.3196
ARG_OF_PERICENTER = 208.4189
MEAN_ANOMALY   = 151.4063

EPHEMERIS_TYPE = 0
CLASSIFICATION_TYPE = U
NORAD_CAT_ID   = 28932
ELEMENT_SET_NO = 999
REV_AT_EPOCH   = 7984
BSTAR          = .77006601E-3
MEAN_MOTION_DOT = .14551E-3
MEAN_MOTION_DDOT = 0

CCSDS_OMM_VERS = 2.0
CREATION_DATE  = 
ORIGINATOR     = 

OBJECT_NAME    = RESURS-DK 1
OBJECT_ID      = 2006-021A
CENTER_NAME    = EARTH
REF_FRAME      = TEME
TIME_SYSTEM    = UTC
MEAN_ELEMENT_THEORY = SGP/SGP4

EPOCH          = 2025-12-03T08:53:53.329632
MEAN_MOTION    = 15.12073053
ECCENTRICITY   = .00078268
INCLINATION    = 69.9327
RA_OF_ASC_NODE = 126.0472
ARG_OF_PERICENTER = 265.4771
MEAN_ANOMALY   = 94.5500

EPHEMERIS_TYPE = 0
CLASSIFICATION_TYPE = U
NORAD_CAT_ID   = 29228
ELEMENT_SET_NO = 999
REV_AT_EPOCH   = 7296
BSTAR          = .26849527E-3
MEAN_MOTION_DOT = .4527E-4
MEAN_MOTION_DDOT = 0

CCSDS_OMM_VERS = 2.0
CREATION_DATE  = 
ORIGINATOR     = 

OBJECT_NAME    = CZ-4B R/B
OBJECT_ID      = 2006-046C
CENTER_NAME    = EARTH
REF_FRAME      = TEME
TIME_SYSTEM    = UTC
MEAN_ELEMENT_THEORY = SGP/SGP4

EPOCH          = 2025-12-03T03:08:45.309408
MEAN_MOTION    = 15.15714634
ECCENTRICITY   = .00327701
INCLINATION    = 97.5751
RA_OF_ASC_NODE = 17.2961
ARG_OF_PERICENTER = 240.8382
MEAN_ANOMALY   = 118.9570

EPHEMERIS_TYPE = 0
CLASSIFICATION_TYPE = U
NORAD_CAT_ID   = 29507
ELEMENT_SET_NO = 999
REV_AT_EPOCH   = 4541
BSTAR          = .39920436E-3
MEAN_MOTION_DOT = .7641E-4
MEAN_MOTION_DDOT = 0

CCSDS_OMM_VERS = 2.0
CREATION_DATE  = 
ORIGINATOR     = 

OBJECT_NAME    = CZ-2C R/B
OBJECT_ID      = 2007-010B
CENTER_NAME    = EARTH
REF_FRAME      = TEME
TIME_SYSTEM    = UTC
MEAN_ELEMENT_THEORY = SGP/SGP4

EPOCH          = 2025-12-03T08:21:49.329504
MEAN_MOTION    = 14.20203342
ECCENTRICITY   = .00584772
INCLINATION    = 98.3973
RA_OF_ASC_NODE = 90.4721
ARG_OF_PERICENTER = 213.4462
MEAN_ANOMALY   = 146.3016

EPHEMERIS_TYPE = 0
CLASSIFICATION_TYPE = U
NORAD_CAT_ID   = 31114
ELEMENT_SET_NO = 999
REV_AT_EPOCH   = 96604
BSTAR          = .14055351E-3
MEAN_MOTION_DOT = .264E-5
MEAN_MOTION_DDOT = 0

CCSDS_OMM_VERS = 2.0
CREATION_DATE  = 
ORIGINATOR     = 

OBJECT_NAME    = COSMO-SKYMED 1
OBJECT_ID      = 2007-023A
CENTER_NAME    = EARTH
REF_FRAME      = TEME
TIME_SYSTEM    = UTC
MEAN_ELEMENT_THEORY = SGP/SGP4

EPOCH          = 2025-12-03T08:31:46.667136
MEAN_MOTION    = 14.95654693
ECCENTRICITY   = .00014384
INCLINATION    = 97.8842
RA_OF_ASC_NODE = 162.6937
ARG_OF_PERICENTER = 81.2059
MEAN_ANOMALY   = 278.9325

EPHEMERIS_TYPE = 0
CLASSIFICATION_TYPE = U
NORAD_CAT_ID   = 31598
ELEMENT_SET_NO = 999
REV_AT_EPOCH   = 50
BSTAR          = .46502731E-3
MEAN_MOTION_DOT = .5112E-4
MEAN_MOTION_DDOT = 0

CCSDS_OMM_VERS = 2.0
CREATION_DATE  = 
ORIGINATOR     = 

OBJECT_NAME    = COSMOS 2428
OBJECT_ID      = 2007-029A
CENTER_NAME    = EARTH
REF_FRAME      = TEME
TIME_SYSTEM    = UTC
MEAN_ELEMENT_THEORY = SGP/SGP4

EPOCH          = 2025-12-03T07:44:01.956768
MEAN_MOTION    = 14.12886988
ECCENTRICITY   = .00031369
INCLINATION    = 70.9373
RA_OF_ASC_NODE = 45.6525
ARG_OF_PERICENTER = 37.6451
MEAN_ANOMALY   = 322.4890

EPHEMERIS_TYPE = 0
CLASSIFICATION_TYPE = U
NORAD_CAT_ID   = 31792
ELEMENT_SET_NO = 999
REV_AT_EPOCH   = 95048
BSTAR          = .40015567E-4
MEAN_MOTION_DOT = .27E-6
MEAN_MOTION_DDOT = 0

CCSDS_OMM_VERS = 2.0
CREATION_DATE  = 
ORIGINATOR     = 

OBJECT_NAME    = SL-16 R/B
OBJECT_ID      = 2007-029B
CENTER_NAME    = EARTH
REF_FRAME      = TEME
TIME_SYSTEM    = UTC
MEAN_ELEMENT_THEORY = SGP/SGP4

EPOCH          = 2025-12-03T08:13:27.328224
MEAN_MOTION    = 14.14816279
ECCENTRICITY   = .00024361
INCLINATION    = 70.9769
RA_OF_ASC_NODE = 14.9116
ARG_OF_PERICENTER = 265.8089
MEAN_ANOMALY   = 171.7490

EPHEMERIS_TYPE = 0
CLASSIFICATION_TYPE = U
NORAD_CAT_ID   = 31793
ELEMENT_SET_NO = 999
REV_AT_EPOCH   = 95174
BSTAR          = -.60745036E-4
MEAN_MOTION_DOT = -.165E-5
MEAN_MOTION_DDOT = 0

CCSDS_OMM_VERS = 2.0
CREATION_DATE  = 
ORIGINATOR     = 

OBJECT_NAME    = KORONAS-FOTON
OBJECT_ID      = 2009-003A
CENTER_NAME    = EARTH
REF_FRAME      = TEME
TIME_SYSTEM    = UTC
MEAN_ELEMENT_THEORY = SGP/SGP4

EPOCH          = 2025-12-03T03:27:38.117952
MEAN_MOTION    = 15.40861902
ECCENTRICITY   = .00126748
INCLINATION    = 82.4326
RA_OF_ASC_NODE = 16.0469
ARG_OF_PERICENTER = 139.1917
MEAN_ANOMALY   = 221.0280

EPHEMERIS_TYPE = 0
CLASSIFICATION_TYPE = U
NORAD_CAT_ID   = 33504
ELEMENT_SET_NO = 999
REV_AT_EPOCH   = 93086
BSTAR          = .36589776E-3
MEAN_MOTION_DOT = .15101E-3
MEAN_MOTION_DDOT = 0

CCSDS_OMM_VERS = 2.0
CREATION_DATE  = 
ORIGINATOR     = 

OBJECT_NAME    = CZ-2C R/B
OBJECT_ID      = 2011-030B
CENTER_NAME    = EARTH
REF_FRAME      = TEME
TIME_SYSTEM    = UTC
MEAN_ELEMENT_THEORY = SGP/SGP4

EPOCH          = 2025-12-03T08:32:23.440704
MEAN_MOTION    = 14.80848599
ECCENTRICITY   = .00517405
INCLINATION    = 97.8395
RA_OF_ASC_NODE = 291.6711
ARG_OF_PERICENTER = 305.0083
MEAN_ANOMALY   = 217.4482

EPHEMERIS_TYPE = 0
CLASSIFICATION_TYPE = U
NORAD_CAT_ID   = 37731
ELEMENT_SET_NO = 999
REV_AT_EPOCH   = 77583
BSTAR          = .34689312E-3
MEAN_MOTION_DOT = .2685E-4
MEAN_MOTION_DDOT = 0

CCSDS_OMM_VERS = 2.0
CREATION_DATE  = 
ORIGINATOR     = 

OBJECT_NAME    = H-2A R/B
OBJECT_ID      = 2012-025E
CENTER_NAME    = EARTH
REF_FRAME      = TEME
TIME_SYSTEM    = UTC
MEAN_ELEMENT_THEORY = SGP/SGP4

EPOCH          = 2025-12-03T07:59:01.229568
MEAN_MOTION    = 14.94343518
ECCENTRICITY   = .00439376
INCLINATION    = 98.4579
RA_OF_ASC_NODE = 291.8388
ARG_OF_PERICENTER = 268.1429
MEAN_ANOMALY   = 91.4756

EPHEMERIS_TYPE = 0
CLASSIFICATION_TYPE = U
NORAD_CAT_ID   = 38341
ELEMENT_SET_NO = 999
REV_AT_EPOCH   = 73382
BSTAR          = .44902625E-3
MEAN_MOTION_DOT = .4853E-4
MEAN_MOTION_DDOT = 0

