CZ-2D R/B               
1 28738U 05024B   25336.92679874  .00031325  00000+0  51226-3 0  9992
2 28738  97.3631 344.1229 0007004  37.3162 322.8576 15.52449645124732
ALOS (DAICHI)           
1 28931U 06002A   25337.36671071  .00002236  00000+0  38600-3 0  9994
2 28931  98.1077 288.9211 0000739 103.5870 256.5418 14.69440041 59335
H-2A R/B                
1 28932U 06002B   25337.33688067  .00014551  00000+0  77007-3 0  9992
2 28932  98.2309 111.3196 0054560 208.4189 151.4063 15.14256927 79841
RESURS-DK 1             
1 29228U 06021A   25337.37075613  .00004527  00000+0  26850-3 0  9995
2 29228  69.9327 126.0472 0007826 265.4771  94.5500 15.12073053 72962
CZ-4B R/B               
1 29507U 06046C   25337.13107997  .00007641  00000+0  39920-3 0  9999
2 29507  97.5751  17.2961 0032770 240.8382 118.9570 15.15714634 45413
CZ-2C R/B               
1 31114U 07010B   25337.34848761  .00000264  00000+0  14055-3 0  9998
2 31114  98.3973  90.4721 0058477 213.4462 146.3016 14.20203342966044
COSMO-SKYMED 1          
1 31598U 07023A   25337.35540124  .00005112  00000+0  46503-3 0  9991
2 31598  97.8842 162.6937 0001438  81.2059 278.9325 14.95654693   504
COSMOS 2428             
1 31792U 07029A   25337.32224487  .00000027  00000+0  40016-4 0  9995
2 31792  70.9373  45.6525 0003136  37.6451 322.4890 14.12886988950488
SL-16 R/B               
1 31793U 07029B   25337.34267741 -.00000165  00000+0 -60745-4 0  9994
2 31793  70.9769  14.9116 0002436 265.8089 171.7490 14.14816279951746
KORONAS-FOTON           
1 33504U 09003A   25337.14419118  .00015101  00000+0  36590-3 0  9999
2 33504  82.4326  16.0469 0012674 139.1917 221.0280 15.40861902930866
CZ-2C R/B               
1 37731U 11030B   25337.35582686  .00002685  00000+0  34689-3 0  9992
2 37731  97.8395 291.6711 0051740 305.0083 217.4482 14.80848599775831
H-2A R/B                
1 38341U 12025E   25337.33265312  .00004853  00000+0  44903-3 0  9996
2 38341  98.4579 291.8388 0043937 268.1429  91.4756 14.94343518733827
